{"type": "FeatureCollection", "features": [ {"type": "Feature", "properties": {"norad_id": 35475, "name": "COSMOS 2251 DEB", "group": "cosmos-2251-debris", "lat": -13.301758930448758, "lon": 134.11987167619543, "alt_km": 675.0228550243828, "timestamp": "2025-12-26T23:26:42.519810+00:00", "meta": {"OBJECT_NAME": "COSMOS 2251 DEB", "OBJECT_ID": "1993-036ALV", "EPOCH": "2025-12-26T15:20:30.310944", "MEAN_MOTION": 14.70039773, "ECCENTRICITY": 0.0019833, "INCLINATION": 74.022, "RA_OF_ASC_NODE": 138.659, "ARG_OF_PERICENTER": 211.7457, "MEAN_ANOMALY": 148.252, "EPHEMERIS_TYPE": 0, "CLASSIFICATION_TYPE": "U", "NORAD_CAT_ID": 35475, "ELEMENT_SET_NO": 999, "REV_AT_EPOCH": 65821, "BSTAR": 0.0022731, "MEAN_MOTION_DOT": 0.00013682, "MEAN_MOTION_DDOT": 0}, "tle": {"line1": "1 35475U 93036ALV 25360.63923971  .00013682  00000+0  22731-2 0  9997", "line2": "2 35475  74.0220 138.6590 0019833 211.7457 148.2520 14.70039773658219"}}, "geometry": {"type": "Point", "coordinates": [134.11987167619543, -13.301758930448758]}}, {"type": "Feature", "properties": {"norad_id": 35476, "name": "COSMOS 2251 DEB", "group": "cosmos-2251-debris", "lat": 41.29871431570109, "lon": -161.66383511084035, "alt_km": 646.3440194628147, "timestamp": "2025-12-26T23:26:42.519819+00:00", "meta": {"OBJECT_NAME": "COSMOS 2251 DEB", "OBJECT_ID": "1993-036ALW", "EPOCH": "2025-12-24T22:18:15.071040", "MEAN_MOTION": 14.75917923, "ECCENTRICITY": 0.00184576, "INCLINATION": 73.9777, "RA_OF_ASC_NODE": 36.9779, "ARG_OF_PERICENTER": 13.4242, "MEAN_ANOMALY": 48.0996, "EPHEMERIS_TYPE": 0, "CLASSIFICATION_TYPE": "U", "NORAD_CAT_ID": 35476, "ELEMENT_SET_NO": 999, "REV_AT_EPOCH": 88067, "BSTAR": 0.0016886358, "MEAN_MOTION_DOT": 0.00011625, "MEAN_MOTION_DDOT": 0}, "tle": {"line1": "1 35476U 93036ALW 25358.92934110  .00011625  00000+0  16886-2 0  9993", "line2": "2 35476  73.9777  36.9779 0018457  13.4242  48.0996 14.75917923880672"}}, "geometry": {"type": "Point", "coordinates": [-161.66383511084035, 41.29871431570109]}}, {"type": "Feature", "properties": {"norad_id": 35580, "name": "COSMOS 2251 DEB", "group": "cosmos-2251-debris", "lat": -30.837735898560535, "lon": -15.55962713045669, "alt_km": 834.0749740011252, "timestamp": "2025-12-26T23:26:42.519828+00:00", "meta": {"OBJECT_NAME": "COSMOS 2251 DEB", "OBJECT_ID": "1993-036ALX", "EPOCH": "2025-12-22T19:33:13.925664", "MEAN_MOTION": 13.83921158, "ECCENTRICITY": 0.0280776, "INCLINATION": 73.9007, "RA_OF_ASC_NODE": 161.5885, "ARG_OF_PERICENTER": 164.8747, "MEAN_ANOMALY": 196.0996, "EPHEMERIS_TYPE": 0, "CLASSIFICATION_TYPE": "U", "NORAD_CAT_ID": 35580, "ELEMENT_SET_NO": 999, "REV_AT_EPOCH": 62396, "BSTAR": 0.0019852622, "MEAN_MOTION_DOT": 2.966e-05, "MEAN_MOTION_DDOT": 0}, "tle": {"line1": "1 35580U 93036ALX 25356.81474451  .00002966  00000+0  19853-2 0  9997", "line2": "2 35580  73.9007 161.5885 0280776 164.8747 196.0996 13.83921158623967"}}, "geometry": {"type": "Point", "coordinates": [-15.55962713045669, -30.837735898560535]}}, {"type": "Feature", "properties": {"norad_id": 35583, "name": "COSMOS 2251 DEB", "group": "cosmos-2251-debris", "lat": -60.984657623282985, "lon": 40.285927490160425, "alt_km": 821.0257501375636, "timestamp": "2025-12-26T23:26:42.519838+00:00", "meta": {"OBJECT_NAME": "COSMOS 2251 DEB", "OBJECT_ID": "1993-036AMA", "EPOCH": "2025-12-25T05:29:42.958752", "MEAN_MOTION": 13.55357514, "ECCENTRICITY": 0.0384921, "INCLINATION": 73.9156, "RA_OF_ASC_NODE": 191.7748, "ARG_OF_PERICENTER": 213.8276, "MEAN_ANOMALY": 143.7737, "EPHEMERIS_TYPE": 0, "CLASSIFICATION_TYPE": "U", "NORAD_CAT_ID": 35583, "ELEMENT_SET_NO": 999, "REV_AT_EPOCH": 82581, "BSTAR": 0.00086553, "MEAN_MOTION_DOT": 9.41e-06, "MEAN_MOTION_DDOT": 0}, "tle": {"line1": "1 35583U 93036AMA 25359.22896943  .00000941  00000+0  86553-3 0  9995", "line2": "2 35583  73.9156 191.7748 0384921 213.8276 143.7737 13.55357514825815"}}, "geometry": {"type": "Point", "coordinates": [40.285927490160425, -60.984657623282985]}}, {"type": "Feature", "properties": {"norad_id": 35585, "name": "COSMOS 2251 DEB", "group": "cosmos-2251-debris", "lat": 43.63080450652743, "lon": 128.73968510983735, "alt_km": 1009.4269750103958, "timestamp": "2025-12-26T23:26:42.519847+00:00", "meta": {"OBJECT_NAME": "COSMOS 2251 DEB", "OBJECT_ID": "1993-036AMC", "EPOCH": "2025-12-21T09:07:18.442848", "MEAN_MOTION": 13.75269672, "ECCENTRICITY": 0.03103986, "INCLINATION": 73.9717, "RA_OF_ASC_NODE": 333.9847, "ARG_OF_PERICENTER": 244.5384, "MEAN_ANOMALY": 273.7703, "EPHEMERIS_TYPE": 0, "CLASSIFICATION_TYPE": "U", "NORAD_CAT_ID": 35585, "ELEMENT_SET_NO": 999, "REV_AT_EPOCH": 64182, "BSTAR": 0.00073727274, "MEAN_MOTION_DOT": 9.8e-06, "MEAN_MOTION_DDOT": 0}, "tle": {"line1": "1 35585U 93036AMC 25355.38007457  .00000980  00000+0  73727-3 0  9996", "line2": "2 35585  73.9717 333.9847 0310398 244.5384 273.7703 13.75269672641821"}}, "geometry": {"type": "Point", "coordinates": [128.73968510983735, 43.63080450652743]}}, {"type": "Feature", "properties": {"norad_id": 35586, "name": "COSMOS 2251 DEB", "group": "cosmos-2251-debris", "lat": -41.540142386933354, "lon": 114.37569083698209, "alt_km": 964.8293603252196, "timestamp": "2025-12-26T23:26:42.519857+00:00", "meta": {"OBJECT_NAME": "COSMOS 2251 DEB", "OBJECT_ID": "1993-036AMD", "EPOCH": "2025-12-26T12:34:40.833408", "MEAN_MOTION": 13.5209486, "ECCENTRICITY": 0.0404139, "INCLINATION": 74.0201, "RA_OF_ASC_NODE": 280.3945, "ARG_OF_PERICENTER": 152.7777, "MEAN_ANOMALY": 23.2121, "EPHEMERIS_TYPE": 0, "CLASSIFICATION_TYPE": "U", "NORAD_CAT_ID": 35586, "ELEMENT_SET_NO": 999, "REV_AT_EPOCH": 60568, "BSTAR": 0.00041333, "MEAN_MOTION_DOT": 4.35e-06, "MEAN_MOTION_DDOT": 0}, "tle": {"line1": "1 35586U 93036AMD 25360.52408372  .00000435  00000+0  41333-3 0  9993", "line2": "2 35586  74.0201 280.3945 0404139 152.7777  23.2121 13.52094860605685"}}, "geometry": {"type": "Point", "coordinates": [114.37569083698209, -41.540142386933354]}}, {"type": "Feature", "properties": {"norad_id": 35587, "name": "COSMOS 2251 DEB", "group": "cosmos-2251-debris", "lat": 72.83145801094996, "lon": 98.88410477005549, "alt_km": 695.9140479910056, "timestamp": "2025-12-26T23:26:42.519866+00:00", "meta": {"OBJECT_NAME": "COSMOS 2251 DEB", "OBJECT_ID": "1993-036AME", "EPOCH": "2025-12-24T09:03:29.515680", "MEAN_MOTION": 14.7155971, "ECCENTRICITY": 0.01022451, "INCLINATION": 74.0058, "RA_OF_ASC_NODE": 35.7588, "ARG_OF_PERICENTER": 220.8718, "MEAN_ANOMALY": 138.4757, "EPHEMERIS_TYPE": 0, "CLASSIFICATION_TYPE": "U", "NORAD_CAT_ID": 35587, "ELEMENT_SET_NO": 999, "REV_AT_EPOCH": 66517, "BSTAR": 0.00025641607, "MEAN_MOTION_DOT": 1.692e-05, "MEAN_MOTION_DDOT": 0}, "tle": {"line1": "1 35587U 93036AME 25358.37742495  .00001692  00000+0  25642-3 0  9992", "line2": "2 35587  74.0058  35.7588 0102245 220.8718 138.4757 14.71559710665172"}}, "geometry": {"type": "Point", "coordinates": [98.88410477005549, 72.83145801094996]}}, {"type": "Feature", "properties": {"norad_id": 35593, "name": "COSMOS 2251 DEB", "group": "cosmos-2251-debris", "lat": 24.566120297519365, "lon": -89.68057671915057, "alt_km": 842.0503347363601, "timestamp": "2025-12-26T23:26:42.519875+00:00", "meta": {"OBJECT_NAME": "COSMOS 2251 DEB", "OBJECT_ID": "1993-036AML", "EPOCH": "2025-12-24T00:35:28.875264", "MEAN_MOTION": 14.25635831, "ECCENTRICITY": 0.01050685, "INCLINATION": 74.0857, "RA_OF_ASC_NODE": 268.1373, "ARG_OF_PERICENTER": 272.0988, "MEAN_ANOMALY": 86.8131, "EPHEMERIS_TYPE": 0, "CLASSIFICATION_TYPE": "U", "NORAD_CAT_ID": 35593, "ELEMENT_SET_NO": 999, "REV_AT_EPOCH": 85226, "BSTAR": 0.00070261528, "MEAN_MOTION_DOT": 1.738e-05, "MEAN_MOTION_DDOT": 0}, "tle": {"line1": "1 35593U 93036AML 25358.02463976  .00001738  00000+0  70262-3 0  9994", "line2": "2 35593  74.0857 268.1373 0105068 272.0988  86.8131 14.25635831852262"}}, "geometry": {"type": "Point", "coordinates": [-89.68057671915057, 24.566120297519365]}}, {"type": "Feature", "properties": {"norad_id": 35594, "name": "COSMOS 2251 DEB", "group": "cosmos-2251-debris", "lat": -64.63828780358986, "lon": 39.926146764893396, "alt_km": 614.0103064636869, "timestamp": "2025-12-26T23:26:42.519884+00:00", "meta": {"OBJECT_NAME": "COSMOS 2251 DEB", "OBJECT_ID": "1993-036AMM", "EPOCH": "2025-12-24T13:41:05.114112", "MEAN_MOTION": 14.88271884, "ECCENTRICITY": 0.00288579, "INCLINATION": 73.806, "RA_OF_ASC_NODE": 82.6068, "ARG_OF_PERICENTER": 193.3523, "MEAN_ANOMALY": 166.6896, "EPHEMERIS_TYPE": 0, "CLASSIFICATION_TYPE": "U", "NORAD_CAT_ID": 35594, "ELEMENT_SET_NO": 999, "REV_AT_EPOCH": 88361, "BSTAR": 0.0016876649, "MEAN_MOTION_DOT": 0.00015714, "MEAN_MOTION_DDOT": 0}, "tle": {"line1": "1 35594U 93036AMM 25358.57019808  .00015714  00000+0  16877-2 0  9996", "line2": "2 35594  73.8060  82.6068 0028857 193.3523 166.6896 14.88271884883617"}}, "geometry": {"type": "Point", "coordinates": [39.926146764893396, -64.63828780358986]}}, {"type": "Feature", "properties": {"norad_id": 35602, "name": "COSMOS 2251 DEB", "group": "cosmos-2251-debris", "lat": -58.41513219940924, "lon": 123.7473047619643, "alt_km": 458.3575529609561, "timestamp": "2025-12-26T23:26:42.519893+00:00", "meta": {"OBJECT_NAME": "COSMOS 2251 DEB", "OBJECT_ID": "1993-036AMV", "EPOCH": "2025-12-26T11:29:23.040960", "MEAN_MOTION": 15.35646504, "ECCENTRICITY": 0.0087912, "INCLINATION": 73.9942, "RA_OF_ASC_NODE": 152.6512, "ARG_OF_PERICENTER": 215.3767, "MEAN_ANOMALY": 208.5706, "EPHEMERIS_TYPE": 0, "CLASSIFICATION_TYPE": "U", "NORAD_CAT_ID": 35602, "ELEMENT_SET_NO": 999, "REV_AT_EPOCH": 90302, "BSTAR": 0.00059504, "MEAN_MOTION_DOT": 0.00023476, "MEAN_MOTION_DDOT": 0}, "tle": {"line1": "1 35602U 93036AMV 25360.47873890  .00023476  00000+0  59504-3 0  9996", "line2": "2 35602  73.9942 152.6512 0087912 215.3767 208.5706 15.35646504903023"}}, "geometry": {"type": "Point", "coordinates": [123.7473047619643, -58.41513219940924]}}]}